[{"OBJECT_NAME":"IONOSFERA-M 3","OBJECT_ID":"2025-155A","EPOCH":"2026-03-09T23:55:45.856992","MEAN_MOTION":14.2146666,"ECCENTRICITY":0.00021277,"INCLINATION":98.5924,"RA_OF_ASC_NODE":33.457,"ARG_OF_PERICENTER":117.7739,"MEAN_ANOMALY":242.3654,"EPHEMERIS_TYPE":0,"CLASSIFICATION_TYPE":"U","NORAD_CAT_ID":64876,"ELEMENT_SET_NO":999,"REV_AT_EPOCH":3231,"BSTAR":7.6669026e-5,"MEAN_MOTION_DOT":1.25e-6,"MEAN_MOTION_DDOT":0},{"OBJECT_NAME":"NOAA 16 DEB","OBJECT_ID":"2000-055GH","EPOCH":"2026-03-07T02:56:25.198368","MEAN_MOTION":14.2652491,"ECCENTRICITY":0.00342751,"INCLINATION":98.8076,"RA_OF_ASC_NODE":132.488,"ARG_OF_PERICENTER":152.6371,"MEAN_ANOMALY":207.6623,"EPHEMERIS_TYPE":0,"CLASSIFICATION_TYPE":"U","NORAD_CAT_ID":41281,"ELEMENT_SET_NO":999,"REV_AT_EPOCH":52491,"BSTAR":0.0024690902,"MEAN_MOTION_DOT":5.949e-5,"MEAN_MOTION_DDOT":0}]
